      2.10          N: GNSS NAV DATA                        RINEX VERSION / TYPE
fic2rin                                 09/14/2018 00:21:40 PGM / RUN BY / DATE
                                                            END OF HEADER
22 18  9 13 10  0  0.0-5.178311839700e-04-1.091393642128e-11 0.000000000000e+00
    5.600000000000e+01-4.650000000000e+01 5.647020935374e-09 7.844758345102e-01
   -2.533197402954e-06 7.087896228768e-03 5.504116415977e-06 5.153711038589e+03
    3.816000000000e+05-5.029141902924e-08 2.633974681469e+00-8.940696716309e-08
    9.259249417933e-01 2.599687500000e+02-1.483901803152e+00-8.818938772770e-09
   -3.725155167665e-10 1.000000000000e+00 2.018000000000e+03 0.000000000000e+00
    2.400000000000e+00 0.000000000000e+00-1.816079020500e-08 5.600000000000e+01
    3.744060000000e+05 4.000000000000e+00
24 18  9 13 10  0  0.0-5.532102659345e-05-5.684341886081e-13 0.000000000000e+00
    5.400000000000e+01 8.653125000000e+01 5.243789853467e-09-2.900068202453e-01
    4.593282938004e-06 7.239122991450e-03 5.502253770828e-06 5.153630361557e+03
    3.816000000000e+05 1.229345798492e-07-1.536929406067e+00 6.705522537231e-08
    9.403541489991e-01 2.644687500000e+02 5.327598036528e-01-8.707148401966e-09
    3.953736117551e-10 1.000000000000e+00 2.018000000000e+03 0.000000000000e+00
    2.400000000000e+00 0.000000000000e+00 2.793967723846e-09 5.400000000000e+01
    3.744060000000e+05 4.000000000000e+00
19 18  9 13 10  0  0.0-4.031113348901e-04 3.524291969370e-12 0.000000000000e+00
    4.700000000000e+01-1.625000000000e+00 3.953378959816e-09-1.990247827982e+00
   -7.636845111847e-08 9.676137357019e-03 1.136027276516e-05 5.153727485657e+03
    3.816000000000e+05 1.378357410431e-07 6.997083206087e-01 7.078051567078e-08
    9.809736347923e-01 1.687187500000e+02 1.279118824845e+00-7.595673533148e-09
    1.335769925893e-10 1.000000000000e+00 2.018000000000e+03 0.000000000000e+00
    2.400000000000e+00 0.000000000000e+00-1.536682248116e-08 4.700000000000e+01
    3.744060000000e+05 4.000000000000e+00
32 18  9 13 10  0  0.0-4.250155761838e-04 1.102762325900e-11 0.000000000000e+00
    5.900000000000e+01 1.487500000000e+01 4.284464179416e-09 2.264134576899e+00
    8.754432201385e-07 2.300388296135e-03 1.240894198418e-05 5.153709648132e+03
    3.816000000000e+05-5.774199962616e-08-2.547295051715e+00-7.450580596924e-08
    9.572947944850e-01 1.339687500000e+02-2.540353144088e+00-7.909615181506e-09
   -8.286059433349e-11 1.000000000000e+00 2.018000000000e+03 0.000000000000e+00
    2.400000000000e+00 0.000000000000e+00 4.656612873077e-10 5.900000000000e+01
    3.744060000000e+05 4.000000000000e+00
18 18  9 13 10  0  0.0 5.674734711647e-05 4.320099833421e-12 0.000000000000e+00
    3.200000000000e+01 3.956250000000e+01 5.079497295737e-09-8.862189927497e-01
    2.207234501839e-06 1.496578985825e-02 7.050111889839e-06 5.153626951218e+03
    3.816000000000e+05-1.620501279831e-07 1.604918103944e+00 2.197921276093e-07
    9.506057127493e-01 2.391250000000e+02 1.347880571059e+00-8.583571825934e-09
    2.821546100149e-10 1.000000000000e+00 2.018000000000e+03 0.000000000000e+00
    2.400000000000e+00 0.000000000000e+00-6.519258022308e-09 3.200000000000e+01
    3.744060000000e+05 4.000000000000e+00
14 18  9 13 10  0  0.0-9.731668978930e-05 1.136868377216e-13 0.000000000000e+00
    6.500000000000e+01 1.568750000000e+01 4.210175370703e-09 1.255825442970e+00
    8.735805749893e-07 1.005854073446e-02 1.232698559761e-05 5.153634508133e+03
    3.816000000000e+05-1.955777406693e-07-2.462102930230e+00-6.705522537231e-08
    9.611000506806e-01 1.406875000000e+02-1.941498426585e+00-8.022119867778e-09
   -8.000333245992e-11 1.000000000000e+00 2.018000000000e+03 0.000000000000e+00
    2.400000000000e+00 0.000000000000e+00-9.778887033463e-09 6.500000000000e+01
    3.744060000000e+05 4.000000000000e+00
15 18  9 13 10  0  0.0-3.460147418082e-04 1.023181539495e-12 0.000000000000e+00
    6.100000000000e+01 1.250000000000e+01 4.970207029073e-09 6.122907071999e-01
    8.102506399155e-07 1.069804967847e-02 1.172535121441e-05 5.153566202164e+03
    3.816000000000e+05-9.313225746155e-08-2.626243299861e+00 1.620501279831e-07
    9.285250855740e-01 1.367812500000e+02 6.991585340507e-01-8.339990251213e-09
   -2.267951612145e-10 1.000000000000e+00 2.018000000000e+03 0.000000000000e+00
    2.400000000000e+00 0.000000000000e+00-1.071020960808e-08 6.100000000000e+01
    3.744060000000e+05 4.000000000000e+00
13 18  9 13 10  0  0.0-8.925143629313e-05 7.958078640513e-13 0.000000000000e+00
    8.900000000000e+01 4.187500000000e+01 4.083384375064e-09 3.243062088153e-01
    2.058222889900e-06 3.375758300535e-03 1.158006489277e-05 5.153673568726e+03
    3.816000000000e+05-3.352761268616e-08-2.419462908799e+00-2.607703208923e-08
    9.685143052969e-01 1.606562500000e+02 1.466454076613e+00-7.852469944035e-09
    2.642967233051e-11 1.000000000000e+00 2.018000000000e+03 0.000000000000e+00
    2.400000000000e+00 0.000000000000e+00-1.117587089539e-08 8.900000000000e+01
    3.744060000000e+05 4.000000000000e+00
17 18  9 13 10  0  0.0-5.633104592562e-05 4.433786671143e-12 0.000000000000e+00
    4.700000000000e+01-2.381250000000e+01 3.839088484874e-09 1.526566934109e+00
   -1.449137926102e-06 1.255015598144e-02 1.150742173195e-05 5.153618762970e+03
    3.816000000000e+05-1.732259988785e-07 6.529567181768e-01-2.887099981308e-07
    9.833932603337e-01 1.732812500000e+02-1.775440905737e+00-7.713892743167e-09
    3.571577341961e-11 1.000000000000e+00 2.018000000000e+03 0.000000000000e+00
    2.400000000000e+00 0.000000000000e+00-1.117587089539e-08 4.700000000000e+01
    3.744060000000e+05 4.000000000000e+00
12 18  9 13 10  0  0.0 3.072652034461e-04-2.728484105319e-12 0.000000000000e+00
    6.000000000000e+01-6.278125000000e+01 4.330180369393e-09-1.882931762317e+00
   -3.186985850334e-06 7.026400649920e-03 5.561858415604e-06 5.153772689819e+03
    3.816000000000e+05 7.450580596924e-08-3.802080566202e-01 3.911554813385e-08
    9.856878605073e-01 2.840312500000e+02 1.024943953464e+00-8.045335120501e-09
   -2.096515899731e-10 1.000000000000e+00 2.018000000000e+03 0.000000000000e+00
    2.400000000000e+00 0.000000000000e+00-1.257285475731e-08 6.000000000000e+01
    3.744060000000e+05 4.000000000000e+00
27 18  9 13 10  0  0.0 3.453870303929e-04-3.637978807092e-12 0.000000000000e+00
    7.500000000000e+01-3.987500000000e+01 4.069455223430e-09 1.536063004538e+00
   -1.890584826469e-06 6.028883624822e-03 1.148320734501e-05 5.153698831558e+03
    3.816000000000e+05-2.793967723846e-08 5.983054283369e-01 1.210719347000e-07
    9.780761719299e-01 1.674375000000e+02 4.544650234581e-01-7.846755420288e-09
   -6.821712723145e-11 1.000000000000e+00 2.018000000000e+03 0.000000000000e+00
    2.400000000000e+00 0.000000000000e+00 1.862645149231e-09 7.500000000000e+01
    3.744060000000e+05 4.000000000000e+00
28 18  9 13 10  0  0.0 7.441481575370e-04 2.273736754432e-12 0.000000000000e+00
    7.600000000000e+01-6.521875000000e+01 4.132672142383e-09 2.443753965693e+00
   -3.423541784286e-06 1.953546004370e-02 5.468726158142e-06 5.153689655304e+03
    3.816000000000e+05 2.235174179077e-07-3.571488659867e-01-1.750886440277e-07
    9.850036244632e-01 2.838125000000e+02-1.514601705195e+00-7.727107579332e-09
   -4.096599211229e-10 1.000000000000e+00 2.018000000000e+03 0.000000000000e+00
    2.400000000000e+00 0.000000000000e+00-1.117587089539e-08 7.600000000000e+01
    3.744060000000e+05 4.000000000000e+00
 5 18  9 13 12  0  0.0-2.025626599789e-06 4.547473508865e-13 0.000000000000e+00
    1.700000000000e+01-5.134375000000e+01 5.045567310988e-09-2.954236932672e+00
   -2.669170498848e-06 5.635650479235e-03 5.980953574181e-06 5.153779100418e+03
    3.888000000000e+05-3.725290298462e-09 2.674182025204e+00-9.872019290924e-08
    9.486427985289e-01 2.576250000000e+02 6.801803391899e-01-8.356776664720e-09
   -3.764442518427e-10 1.000000000000e+00 2.018000000000e+03 0.000000000000e+00
    2.400000000000e+00 0.000000000000e+00-1.117587089539e-08 1.700000000000e+01
    3.816060000000e+05 4.000000000000e+00
 3 18  9 13 12  0  0.0 1.356308348477e-04 5.229594535194e-12 0.000000000000e+00
    1.200000000000e+01-4.381250000000e+01 4.832344143673e-09-6.481769581206e-01
   -2.432614564896e-06 1.732993987389e-03 6.098300218582e-06 5.153674962997e+03
    3.888000000000e+05 2.235174179077e-08 2.697489468647e+00 4.284083843231e-08
    9.617749328264e-01 2.620625000000e+02 6.231859227208e-01-8.302488689122e-09
   -4.125171829965e-10 1.000000000000e+00 2.018000000000e+03 0.000000000000e+00
    2.400000000000e+00 0.000000000000e+00 1.862645149231e-09 1.200000000000e+01
    3.816060000000e+05 4.000000000000e+00
 2 18  9 13 12  0  0.0-4.530884325504e-07-1.102762325900e-11 0.000000000000e+00
    6.700000000000e+01 4.050000000000e+01 5.111641491814e-09 6.927973024970e-01
    2.183020114899e-06 1.815513556357e-02 7.379800081253e-06 5.153552192688e+03
    3.888000000000e+05-2.682209014893e-07 1.590988841677e+00 3.911554813385e-08
    9.512663153518e-01 2.385937500000e+02-1.831237825743e+00-8.731792285626e-09
    1.925080187317e-10 1.000000000000e+00 2.018000000000e+03 0.000000000000e+00
    2.400000000000e+00 0.000000000000e+00-2.048909664154e-08 6.700000000000e+01
    3.816060000000e+05 4.000000000000e+00
 1 18  9 13 12  0  0.0-8.761603385210e-05-4.547473508865e-12 0.000000000000e+00
    7.300000000000e+01 2.912500000000e+01 4.635907389865e-09 3.902525428534e-01
    1.681968569756e-06 8.096573757939e-03 6.848946213722e-06 5.153660526276e+03
    3.888000000000e+05 2.421438694000e-08 1.654408839077e+00 5.401670932770e-08
    9.721739572561e-01 2.505625000000e+02 6.931990227274e-01-8.254986710474e-09
    2.539391490134e-10 1.000000000000e+00 2.018000000000e+03 0.000000000000e+00
    3.400000000000e+00 0.000000000000e+00 5.587935447693e-09 7.300000000000e+01
    3.816060000000e+05 4.000000000000e+00
